[{"OBJECT_NAME":"STARLINK-30205","OBJECT_ID":"2023-102E","EPOCH":"2026-03-09T22:00:01.999584","MEAN_MOTION":15.16447452,"ECCENTRICITY":0.00018696,"INCLINATION":43.0006,"RA_OF_ASC_NODE":246.9923,"ARG_OF_PERICENTER":276.197,"MEAN_ANOMALY":248.6091,"EPHEMERIS_TYPE":0,"CLASSIFICATION_TYPE":"U","NORAD_CAT_ID":57408,"ELEMENT_SET_NO":999,"REV_AT_EPOCH":577,"BSTAR":0.032319724,"MEAN_MOTION_DOT":0.00685913,"MEAN_MOTION_DDOT":0},{"OBJECT_NAME":"OBJECT C","OBJECT_ID":"2017-042C","EPOCH":"2026-03-09T10:17:10.798080","MEAN_MOTION":15.23148717,"ECCENTRICITY":0.00098979,"INCLINATION":97.4062,"RA_OF_ASC_NODE":245.0163,"ARG_OF_PERICENTER":70.2407,"MEAN_ANOMALY":289.9897,"EPHEMERIS_TYPE":0,"CLASSIFICATION_TYPE":"U","NORAD_CAT_ID":42827,"ELEMENT_SET_NO":999,"REV_AT_EPOCH":47263,"BSTAR":0.00073854586,"MEAN_MOTION_DOT":0.00017421,"MEAN_MOTION_DDOT":0}]
